ONEWEB-0136             
1 47282U 20100AA  24205.50956267 -.00000328  00000+0 -94713-3 0  9990
2 47282  87.8955 128.7821 0001493  71.8707 288.2584 13.12444935173670
ONEWEB-0137             
1 47283U 20100AB  24205.54363680  .00000426  00000+0  11475-2 0  9996
2 47283  87.8950 128.7980 0001918  82.0611 278.0735 13.12444617173584
ONEWEB-0138             
1 47284U 20100AC  24205.52254332 -.00000188  00000+0 -55800-3 0  9996
2 47284  87.8950 128.8146 0001844  78.3131 281.8204 13.12444162173660
ONEWEB-0139             
1 47285U 20100AD  24206.17147640  .00000570  00000+0  15483-2 0  9997
2 47285  87.8956 128.6568 0002047  76.1569 283.9787 13.12445122173824
ONEWEB-0140             
1 47286U 20100AE  24205.51605264 -.00000313  00000+0 -90534-3 0  9994
2 47286  87.8950 128.7914 0001823  75.1764 284.9566 13.12445052173695
ONEWEB-0141             
1 47287U 20100AF  24205.79008649  .00000227  00000+0  59488-3 0  9994
2 47287  87.8951 128.7494 0002034  80.7278 279.4080 13.12438636173721
ONEWEB-0142             
1 47288U 20100AG  24205.75855683 -.00000029  00000+0 -11581-3 0  9993
2 47288  87.8951 128.7362 0001820  84.1099 276.0237 13.12445024173712
ONEWEB-0143             
1 47289U 20100AH  24205.78857104  .00000258  00000+0  68098-3 0  9994
2 47289  87.8952 128.7517 0002023  76.3726 283.7628 13.12442380173690
